{
"type": "FeatureCollection",
"name": "leuchttuerme",
"xy_coordinate_resolution": 1e-06,
"features": [
{ "type": "Feature", "properties": { "fid": 1, "name": "Rathaus", "typ": "Leuchtturm", "addr": null }, "geometry": { "type": "Polygon", "coordinates": [ [ [ 15.438166, 47.070335 ], [ 15.43853, 47.069881 ], [ 15.43859, 47.069873 ], [ 15.439337, 47.070348 ], [ 15.439195, 47.07047 ], [ 15.439092, 47.070564 ], [ 15.438968, 47.070667 ], [ 15.438928, 47.0707 ], [ 15.438747, 47.070854 ], [ 15.438548, 47.07073 ], [ 15.438499, 47.070762 ], [ 15.438349, 47.070674 ], [ 15.43839, 47.070637 ], [ 15.438212, 47.070532 ], [ 15.438195, 47.070515 ], [ 15.438195, 47.070502 ], [ 15.438156, 47.070419 ], [ 15.438166, 47.070335 ] ] ] } },
{ "type": "Feature", "properties": { "fid": 2, "name": "Amtshaus", "typ": "Leuchtturm", "addr": null }, "geometry": { "type": "Polygon", "coordinates": [ [ [ 15.438806, 47.068543 ], [ 15.438892, 47.068375 ], [ 15.438908, 47.068327 ], [ 15.438913, 47.068307 ], [ 15.43893, 47.068259 ], [ 15.439069, 47.067824 ], [ 15.439118, 47.067809 ], [ 15.439436, 47.067919 ], [ 15.439771, 47.068032 ], [ 15.439675, 47.068166 ], [ 15.439597, 47.068273 ], [ 15.439549, 47.068344 ], [ 15.439487, 47.068421 ], [ 15.439335, 47.068609 ], [ 15.439278, 47.068686 ], [ 15.439261, 47.0687 ], [ 15.439122, 47.068645 ], [ 15.439096, 47.068639 ], [ 15.439106, 47.068631 ], [ 15.438951, 47.06858 ], [ 15.438946, 47.068591 ], [ 15.438806, 47.068543 ] ] ] } },
{ "type": "Feature", "properties": { "fid": 3, "name": "GPS", "typ": "Führungsstab", "addr": null }, "geometry": { "type": "Polygon", "coordinates": [ [ [ 15.447254, 47.059069 ], [ 15.447792, 47.059226 ], [ 15.447765, 47.059273 ], [ 15.448193, 47.059397 ], [ 15.448178, 47.059426 ], [ 15.448242, 47.059445 ], [ 15.448221, 47.059473 ], [ 15.448208, 47.059494 ], [ 15.448161, 47.059572 ], [ 15.448097, 47.059555 ], [ 15.448102, 47.05954 ], [ 15.447694, 47.05942 ], [ 15.447674, 47.059452 ], [ 15.447534, 47.059412 ], [ 15.447555, 47.059379 ], [ 15.447136, 47.059255 ], [ 15.447254, 47.059069 ] ] ] } },
{ "type": "Feature", "properties": { "fid": 4, "name": "Pfarre St. Peter", "typ": "Leuchtturm", "addr": null }, "geometry": { "type": "Polygon", "coordinates": [ [ [ 15.475509, 47.055431 ], [ 15.475467, 47.05549 ], [ 15.475258, 47.055415 ], [ 15.47511, 47.055606 ], [ 15.474973, 47.055557 ], [ 15.475165, 47.055308 ], [ 15.475509, 47.055431 ] ] ] } },
{ "type": "Feature", "properties": { "fid": 5, "name": "Pfarre St. Peter", "typ": "Leuchtturm", "addr": null }, "geometry": { "type": "Polygon", "coordinates": [ [ [ 15.47537, 47.055597 ], [ 15.475466, 47.055629 ], [ 15.475386, 47.055739 ], [ 15.475358, 47.055777 ], [ 15.475328, 47.055817 ], [ 15.475294, 47.055864 ], [ 15.475267, 47.055901 ], [ 15.47523, 47.055951 ], [ 15.475193, 47.05598 ], [ 15.475182, 47.055984 ], [ 15.475139, 47.055984 ], [ 15.475123, 47.05598 ], [ 15.475118, 47.055987 ], [ 15.475016, 47.055955 ], [ 15.475063, 47.055892 ], [ 15.474914, 47.055846 ], [ 15.474962, 47.055774 ], [ 15.475186, 47.055848 ], [ 15.47537, 47.055597 ] ] ] } },
{ "type": "Feature", "properties": { "fid": 6, "name": "Depot SiMa", "typ": "Depot", "addr": null }, "geometry": { "type": "Polygon", "coordinates": [ [ [ 15.467526, 47.029511 ], [ 15.467644, 47.029366 ], [ 15.467688, 47.029309 ], [ 15.468181, 47.029503 ], [ 15.468154, 47.029532 ], [ 15.468068, 47.0295 ], [ 15.467934, 47.029663 ], [ 15.467913, 47.029657 ], [ 15.467854, 47.029722 ], [ 15.467838, 47.029716 ], [ 15.467714, 47.029868 ], [ 15.4672, 47.029673 ], [ 15.467268, 47.02958 ], [ 15.4673, 47.029591 ], [ 15.467338, 47.029558 ], [ 15.467415, 47.029467 ], [ 15.467526, 47.029511 ] ] ] } },
{ "type": "Feature", "properties": { "fid": 7, "name": "VS Engelsdorf", "typ": "Leuchtturm", "addr": null }, "geometry": { "type": "Polygon", "coordinates": [ [ [ 15.465757, 47.032874 ], [ 15.465752, 47.03288 ], [ 15.465831, 47.03291 ], [ 15.465842, 47.032896 ], [ 15.46596, 47.032932 ], [ 15.466374, 47.033071 ], [ 15.466353, 47.0331 ], [ 15.466378, 47.033108 ], [ 15.466359, 47.033137 ], [ 15.466326, 47.033183 ], [ 15.466289, 47.033239 ], [ 15.466254, 47.033288 ], [ 15.466202, 47.033364 ], [ 15.46625, 47.033382 ], [ 15.466196, 47.033459 ], [ 15.46596, 47.033382 ], [ 15.46595, 47.0334 ], [ 15.465601, 47.033291 ], [ 15.46558, 47.033323 ], [ 15.465274, 47.033225 ], [ 15.465342, 47.033119 ], [ 15.46544, 47.033148 ], [ 15.465572, 47.032946 ], [ 15.465532, 47.032936 ], [ 15.465558, 47.032899 ], [ 15.465599, 47.032914 ], [ 15.465654, 47.032842 ], [ 15.465757, 47.032874 ] ] ] } },
{ "type": "Feature", "properties": { "fid": 8, "name": "VS Puntigam", "typ": "Leuchtturm", "addr": null }, "geometry": { "type": "Polygon", "coordinates": [ [ [ 15.426884, 47.023045 ], [ 15.427247, 47.023086 ], [ 15.427233, 47.023146 ], [ 15.427486, 47.023187 ], [ 15.427506, 47.023125 ], [ 15.427434, 47.02311 ], [ 15.427461, 47.023026 ], [ 15.42813, 47.023136 ], [ 15.428096, 47.02322 ], [ 15.428025, 47.023211 ], [ 15.428008, 47.023273 ], [ 15.428063, 47.023282 ], [ 15.428026, 47.023387 ], [ 15.426983, 47.02322 ], [ 15.42694, 47.023362 ], [ 15.427113, 47.02344 ], [ 15.427078, 47.02357 ], [ 15.426985, 47.023846 ], [ 15.426628, 47.023792 ], [ 15.426719, 47.023509 ], [ 15.426884, 47.023045 ] ] ] } },
{ "type": "Feature", "properties": { "fid": 9, "name": "Neue Zentralküche", "typ": "Küche", "addr": null }, "geometry": { "type": "Polygon", "coordinates": [ [ [ 15.433182, 47.043962 ], [ 15.434199, 47.04401 ], [ 15.434197, 47.044577 ], [ 15.433156, 47.044526 ], [ 15.433182, 47.043962 ] ] ] } },
{ "type": "Feature", "properties": { "fid": 10, "name": "Pfarre Schutzengel", "typ": "Leuchtturm", "addr": null }, "geometry": { "type": "Polygon", "coordinates": [ [ [ 15.397055, 47.067634 ], [ 15.39721, 47.067615 ], [ 15.397232, 47.067717 ], [ 15.397221, 47.067722 ], [ 15.397248, 47.067835 ], [ 15.397269, 47.067835 ], [ 15.397296, 47.067926 ], [ 15.39728, 47.067926 ], [ 15.397296, 47.067981 ], [ 15.397269, 47.067985 ], [ 15.39728, 47.068028 ], [ 15.397162, 47.068043 ], [ 15.397156, 47.068028 ], [ 15.396999, 47.068043 ], [ 15.396813, 47.068061 ], [ 15.396807, 47.06805 ], [ 15.396792, 47.068054 ], [ 15.396797, 47.068068 ], [ 15.396818, 47.068068 ], [ 15.396867, 47.068061 ], [ 15.39691, 47.068061 ], [ 15.396953, 47.068076 ], [ 15.396969, 47.068101 ], [ 15.396968, 47.068123 ], [ 15.396957, 47.068145 ], [ 15.396936, 47.068163 ], [ 15.396905, 47.068171 ], [ 15.396898, 47.068152 ], [ 15.396851, 47.068156 ], [ 15.396856, 47.068178 ], [ 15.39661, 47.0682 ], [ 15.396545, 47.068204 ], [ 15.396539, 47.068215 ], [ 15.396485, 47.068211 ], [ 15.396417, 47.068193 ], [ 15.396341, 47.068138 ], [ 15.39632, 47.068098 ], [ 15.396308, 47.068054 ], [ 15.39633, 47.067992 ], [ 15.396384, 47.067945 ], [ 15.396426, 47.067977 ], [ 15.396464, 47.067955 ], [ 15.396679, 47.067933 ], [ 15.39669, 47.067976 ], [ 15.396776, 47.06797 ], [ 15.396787, 47.068032 ], [ 15.396807, 47.068032 ], [ 15.396802, 47.068014 ], [ 15.397096, 47.06798 ], [ 15.397141, 47.067973 ], [ 15.397135, 47.067945 ], [ 15.397124, 47.067944 ], [ 15.397097, 47.067831 ], [ 15.397092, 47.067824 ], [ 15.397027, 47.067831 ], [ 15.397017, 47.067798 ], [ 15.397011, 47.067762 ], [ 15.397081, 47.067754 ], [ 15.397055, 47.067634 ] ] ] } },
{ "type": "Feature", "properties": { "fid": 11, "name": "Augustinum", "typ": "Leuchtturm", "addr": null }, "geometry": { "type": "Polygon", "coordinates": [ [ [ 15.437652, 47.081878 ], [ 15.438141, 47.082066 ], [ 15.438134, 47.082482 ], [ 15.438114, 47.08273 ], [ 15.438033, 47.083109 ], [ 15.437938, 47.083102 ], [ 15.437195, 47.082826 ], [ 15.437652, 47.081878 ] ] ] } },
{ "type": "Feature", "properties": { "fid": 12, "name": "Zentralküche Graz", "typ": "Küche", "addr": null }, "geometry": { "type": "Polygon", "coordinates": [ [ [ 15.425406, 47.088866 ], [ 15.425549, 47.088908 ], [ 15.425561, 47.088887 ], [ 15.425614, 47.088902 ], [ 15.425604, 47.088927 ], [ 15.425871, 47.089008 ], [ 15.425904, 47.088902 ], [ 15.426018, 47.088917 ], [ 15.425969, 47.08904 ], [ 15.42588, 47.089184 ], [ 15.425743, 47.089402 ], [ 15.425626, 47.089363 ], [ 15.425668, 47.089278 ], [ 15.42562, 47.08926 ], [ 15.425663, 47.089202 ], [ 15.425688, 47.08921 ], [ 15.42577, 47.089085 ], [ 15.425351, 47.088958 ], [ 15.425406, 47.088866 ] ] ] } },
{ "type": "Feature", "properties": { "fid": 13, "name": "Pfarre St. Veit", "typ": "Leuchtturm", "addr": null }, "geometry": { "type": "Polygon", "coordinates": [ [ [ 15.411898, 47.116362 ], [ 15.41214, 47.116357 ], [ 15.412136, 47.116374 ], [ 15.412385, 47.116368 ], [ 15.412481, 47.116081 ], [ 15.412637, 47.116101 ], [ 15.41257, 47.116299 ], [ 15.412616, 47.11631 ], [ 15.412557, 47.116471 ], [ 15.41214, 47.116479 ], [ 15.412132, 47.116441 ], [ 15.411899, 47.11645 ], [ 15.411898, 47.116362 ] ] ] } },
{ "type": "Feature", "properties": { "fid": 14, "name": "Pfarre St. Veit", "typ": "Leuchtturm", "addr": null }, "geometry": { "type": "Polygon", "coordinates": [ [ [ 15.411935, 47.115974 ], [ 15.412064, 47.116 ], [ 15.412033, 47.116091 ], [ 15.412284, 47.116147 ], [ 15.412252, 47.116222 ], [ 15.412214, 47.116215 ], [ 15.412198, 47.116248 ], [ 15.411844, 47.116172 ], [ 15.411853, 47.116142 ], [ 15.411875, 47.116146 ], [ 15.411935, 47.115974 ] ] ] } },
{ "type": "Feature", "properties": { "fid": 15, "name": "Pfarre Mariatrost", "typ": "Leuchtturm", "addr": null }, "geometry": { "type": "Polygon", "coordinates": [ [ [ 15.491409, 47.106921 ], [ 15.491971, 47.107081 ], [ 15.491899, 47.107205 ], [ 15.4921, 47.10726 ], [ 15.491849, 47.107654 ], [ 15.491093, 47.107428 ], [ 15.491162, 47.107307 ], [ 15.491204, 47.107231 ], [ 15.491271, 47.107125 ], [ 15.49128, 47.107118 ], [ 15.491409, 47.106921 ] ] ] } },
{ "type": "Feature", "properties": { "fid": 16, "name": "Hauptbahnhof", "typ": "Leuchtturm", "addr": null }, "geometry": { "type": "Polygon", "coordinates": [ [ [ 15.417648, 47.072397 ], [ 15.417692, 47.072342 ], [ 15.417749, 47.072285 ], [ 15.417833, 47.072222 ], [ 15.41791, 47.072176 ], [ 15.417969, 47.072156 ], [ 15.418002, 47.072145 ], [ 15.418057, 47.07214 ], [ 15.418128, 47.072144 ], [ 15.418204, 47.072154 ], [ 15.418265, 47.072175 ], [ 15.418299, 47.072197 ], [ 15.418336, 47.072227 ], [ 15.418359, 47.072254 ], [ 15.418375, 47.072287 ], [ 15.418403, 47.072346 ], [ 15.418423, 47.072418 ], [ 15.418431, 47.072478 ], [ 15.418447, 47.072475 ], [ 15.41847, 47.072544 ], [ 15.418428, 47.072552 ], [ 15.418428, 47.072553 ], [ 15.41842, 47.072611 ], [ 15.418403, 47.072652 ], [ 15.418395, 47.072685 ], [ 15.418379, 47.072717 ], [ 15.418361, 47.072746 ], [ 15.418325, 47.072788 ], [ 15.418317, 47.072795 ], [ 15.418295, 47.072812 ], [ 15.41827, 47.07283 ], [ 15.418237, 47.072846 ], [ 15.418194, 47.072862 ], [ 15.418154, 47.072876 ], [ 15.418114, 47.072883 ], [ 15.418019, 47.072891 ], [ 15.417955, 47.072886 ], [ 15.417923, 47.072884 ], [ 15.417874, 47.072877 ], [ 15.417826, 47.072866 ], [ 15.417777, 47.072851 ], [ 15.41774, 47.072836 ], [ 15.417665, 47.0728 ], [ 15.417643, 47.072778 ], [ 15.417616, 47.072756 ], [ 15.417595, 47.072731 ], [ 15.417578, 47.072703 ], [ 15.417563, 47.072676 ], [ 15.417556, 47.072649 ], [ 15.417555, 47.072623 ], [ 15.417648, 47.072397 ] ] ] } },
{ "type": "Feature", "properties": { "fid": 17, "name": "Bauamt", "typ": "Bauamt", "addr": null }, "geometry": { "type": "Polygon", "coordinates": [ [ [ 15.418538, 47.070773 ], [ 15.418882, 47.070812 ], [ 15.419177, 47.070849 ], [ 15.419162, 47.07091 ], [ 15.419219, 47.070921 ], [ 15.419294, 47.07093 ], [ 15.419291, 47.070954 ], [ 15.419331, 47.070961 ], [ 15.419284, 47.071156 ], [ 15.418448, 47.071051 ], [ 15.418538, 47.070773 ] ] ] } },
{ "type": "Feature", "properties": { "fid": 18, "name": "Pfarre Kreuzkirche", "typ": "Leuchtturm", "addr": null }, "geometry": { "type": "Polygon", "coordinates": [ [ [ 15.425829, 47.073947 ], [ 15.42583, 47.073973 ], [ 15.426032, 47.073977 ], [ 15.426038, 47.074195 ], [ 15.425888, 47.074196 ], [ 15.42588, 47.07408 ], [ 15.425741, 47.074081 ], [ 15.425743, 47.073951 ], [ 15.425829, 47.073947 ] ] ] } }
]
}
