{
"type": "FeatureCollection",
"name": "notstromaggregate",
"features": [
{ "type": "Feature", "properties": { "name": "Aggregat 1", "marker-size": "small" }, "geometry": { "type": "Point", "coordinates": [ 15.419199, 47.070891 ] } },
{ "type": "Feature", "properties": { "name": "Aggregat 2", "marker-size": "small" }, "geometry": { "type": "Point", "coordinates": [ 15.397231, 47.06762 ] } },
{ "type": "Feature", "properties": { "name": "Aggregat 3", "marker-size": "small" }, "geometry": { "type": "Point", "coordinates": [ 15.438916, 47.070327 ] } },
{ "type": "Feature", "properties": { "name": "Aggregat 4", "marker-size": "small" }, "geometry": { "type": "Point", "coordinates": [ 15.439161, 47.068322 ] } },
{ "type": "Feature", "properties": { "name": "Aggregat 5", "marker-size": "small" }, "geometry": { "type": "Point", "coordinates": [ 15.437887, 47.082154 ] } },
{ "type": "Feature", "properties": { "name": "Aggregat 6", "marker-size": "small" }, "geometry": { "type": "Point", "coordinates": [ 15.425852, 47.074183 ] } },
{ "type": "Feature", "properties": { "name": "Aggregat 7", "marker-size": "small" }, "geometry": { "type": "Point", "coordinates": [ 15.412557, 47.116603 ] } },
{ "type": "Feature", "properties": { "name": "Aggregat 8", "marker-size": "small" }, "geometry": { "type": "Point", "coordinates": [ 15.492076, 47.107235 ] } },
{ "type": "Feature", "properties": { "name": "Aggregat 9", "marker-size": "small" }, "geometry": { "type": "Point", "coordinates": [ 15.474943, 47.056084 ] } },
{ "type": "Feature", "properties": { "name": "Aggregat 10", "marker-size": "small" }, "geometry": { "type": "Point", "coordinates": [ 15.448064, 47.059547 ] } },
{ "type": "Feature", "properties": { "name": "Aggregat 11", "marker-size": "small" }, "geometry": { "type": "Point", "coordinates": [ 15.466302, 47.033266 ] } },
{ "type": "Feature", "properties": { "name": "Aggregat 12", "marker-size": "small" }, "geometry": { "type": "Point", "coordinates": [ 15.426587, 47.023823 ] } }
]
}
